COSMOS 2228             
1 22286U 92094A   25334.58933477  .00002465  00000+0  21353-3 0  9990
2 22286  82.5174 332.1612 0016285 276.4078  83.5290 14.96637463761238
SL-16 R/B               
1 22566U 93016B   25334.61919333 -.00000135  00000+0 -45114-4 0  9991
2 22566  71.0093  63.2591 0007961 120.6433 239.5475 14.15289049688157
COSMOS 2242             
1 22626U 93024A   25334.52979495  .00001996  00000+0  17527-3 0  9992
2 22626  82.5199   1.5156 0014828 279.7894  80.1653 14.96026065765562
SL-16 R/B               
1 22803U 93059B   25334.38026028  .00000125  00000+0  85472-4 0  9994
2 22803  70.9894 220.5481 0017207 353.9216   6.1696 14.17208305665468
ARIANE 40 R/B           
1 22830U 93061H   25334.60685484  .00000260  00000+0  11112-3 0  9998
2 22830  98.5093  40.3569 0010196 212.4541 147.6018 14.32788427679919
COSMOS 2278             
1 23087U 94023A   25334.51264031  .00000019  00000+0  34478-4 0  9996
2 23087  71.0556  22.5917 0009031 197.2900 162.7917 14.14350471630780
SL-16 R/B               
1 23088U 94023B   25334.60440761  .00000343  00000+0  20182-3 0  9999
2 23088  70.9998 278.9697 0001074  88.3087 271.8158 14.14995452632073
SL-16 R/B               
1 23343U 94074B   25334.64428241  .00000535  00000+0  78552-4 0  9990
2 23343  97.7216   4.4290 0006676 171.4534 301.2121 14.79267047672606
SL-16 R/B               
1 23405U 94077B   25334.62462028 -.00000185  00000+0 -70308-4 0  9995
2 23405  70.9809 200.9001 0004560 293.7386  66.3258 14.15545787602212
ARIANE 40+ R/B          
1 23561U 95021B   25334.65475275  .00000340  00000+0  12268-3 0  9990
2 23561  98.4667  42.3887 0007823  81.5799  37.1019 14.39680234604999
SL-16 R/B               
1 23705U 95058B   25334.55605592  .00000236  00000+0  14494-3 0  9993
2 23705  71.0224  28.3846 0014873 270.5118  89.4301 14.15476247553822
SL-16 R/B               
1 24298U 96051B   25334.59049218 -.00000024  00000+0  13580-4 0  9998
2 24298  70.7605  25.0005 0019048 276.3871  83.5080 14.12394503507659
