CCSDS_OMM_VERS = 2.0
CREATION_DATE  = 
ORIGINATOR     = 

OBJECT_NAME    = COSMOS 2228
OBJECT_ID      = 1992-094A
CENTER_NAME    = EARTH
REF_FRAME      = TEME
TIME_SYSTEM    = UTC
MEAN_ELEMENT_THEORY = SGP/SGP4

EPOCH          = 2025-11-30T14:08:38.524128
MEAN_MOTION    = 14.96637463
ECCENTRICITY   = .0016285
INCLINATION    = 82.5174
RA_OF_ASC_NODE = 332.1612
ARG_OF_PERICENTER = 276.4078
MEAN_ANOMALY   = 83.5290

EPHEMERIS_TYPE = 0
CLASSIFICATION_TYPE = U
NORAD_CAT_ID   = 22286
ELEMENT_SET_NO = 999
REV_AT_EPOCH   = 76123
BSTAR          = .21352666E-3
MEAN_MOTION_DOT = .2465E-4
MEAN_MOTION_DDOT = 0

CCSDS_OMM_VERS = 2.0
CREATION_DATE  = 
ORIGINATOR     = 

OBJECT_NAME    = SL-16 R/B
OBJECT_ID      = 1993-016B
CENTER_NAME    = EARTH
REF_FRAME      = TEME
TIME_SYSTEM    = UTC
MEAN_ELEMENT_THEORY = SGP/SGP4

EPOCH          = 2025-11-30T14:51:38.303712
MEAN_MOTION    = 14.15289049
ECCENTRICITY   = .00079613
INCLINATION    = 71.0093
RA_OF_ASC_NODE = 63.2591
ARG_OF_PERICENTER = 120.6433
MEAN_ANOMALY   = 239.5475

EPHEMERIS_TYPE = 0
CLASSIFICATION_TYPE = U
NORAD_CAT_ID   = 22566
ELEMENT_SET_NO = 999
REV_AT_EPOCH   = 68815
BSTAR          = -.45113918E-4
MEAN_MOTION_DOT = -.135E-5
MEAN_MOTION_DDOT = 0

CCSDS_OMM_VERS = 2.0
CREATION_DATE  = 
ORIGINATOR     = 

OBJECT_NAME    = COSMOS 2242
OBJECT_ID      = 1993-024A
CENTER_NAME    = EARTH
REF_FRAME      = TEME
TIME_SYSTEM    = UTC
MEAN_ELEMENT_THEORY = SGP/SGP4

EPOCH          = 2025-11-30T12:42:54.283680
MEAN_MOTION    = 14.96026065
ECCENTRICITY   = .00148288
INCLINATION    = 82.5199
RA_OF_ASC_NODE = 1.5156
ARG_OF_PERICENTER = 279.7894
MEAN_ANOMALY   = 80.1653

EPHEMERIS_TYPE = 0
CLASSIFICATION_TYPE = U
NORAD_CAT_ID   = 22626
ELEMENT_SET_NO = 999
REV_AT_EPOCH   = 76556
BSTAR          = .17527119E-3
MEAN_MOTION_DOT = .1996E-4
MEAN_MOTION_DDOT = 0

CCSDS_OMM_VERS = 2.0
CREATION_DATE  = 
ORIGINATOR     = 

OBJECT_NAME    = SL-16 R/B
OBJECT_ID      = 1993-059B
CENTER_NAME    = EARTH
REF_FRAME      = TEME
TIME_SYSTEM    = UTC
MEAN_ELEMENT_THEORY = SGP/SGP4

EPOCH          = 2025-11-30T09:07:34.488192
MEAN_MOTION    = 14.17208305
ECCENTRICITY   = .00172078
INCLINATION    = 70.9894
RA_OF_ASC_NODE = 220.5481
ARG_OF_PERICENTER = 353.9216
MEAN_ANOMALY   = 6.1696

EPHEMERIS_TYPE = 0
CLASSIFICATION_TYPE = U
NORAD_CAT_ID   = 22803
ELEMENT_SET_NO = 999
REV_AT_EPOCH   = 66546
BSTAR          = .8547179E-4
MEAN_MOTION_DOT = .125E-5
MEAN_MOTION_DDOT = 0

CCSDS_OMM_VERS = 2.0
CREATION_DATE  = 
ORIGINATOR     = 

OBJECT_NAME    = ARIANE 40 R/B
OBJECT_ID      = 1993-061H
CENTER_NAME    = EARTH
REF_FRAME      = TEME
TIME_SYSTEM    = UTC
MEAN_ELEMENT_THEORY = SGP/SGP4

EPOCH          = 2025-11-30T14:33:52.258176
MEAN_MOTION    = 14.32788427
ECCENTRICITY   = .00101965
INCLINATION    = 98.5093
RA_OF_ASC_NODE = 40.3569
ARG_OF_PERICENTER = 212.4541
MEAN_ANOMALY   = 147.6018

EPHEMERIS_TYPE = 0
CLASSIFICATION_TYPE = U
NORAD_CAT_ID   = 22830
ELEMENT_SET_NO = 999
REV_AT_EPOCH   = 67991
BSTAR          = .111119E-3
MEAN_MOTION_DOT = .26E-5
MEAN_MOTION_DDOT = 0

CCSDS_OMM_VERS = 2.0
CREATION_DATE  = 
ORIGINATOR     = 

OBJECT_NAME    = COSMOS 2278
OBJECT_ID      = 1994-023A
CENTER_NAME    = EARTH
REF_FRAME      = TEME
TIME_SYSTEM    = UTC
MEAN_ELEMENT_THEORY = SGP/SGP4

EPOCH          = 2025-11-30T12:18:12.122784
MEAN_MOTION    = 14.14350471
ECCENTRICITY   = .00090315
INCLINATION    = 71.0556
RA_OF_ASC_NODE = 22.5917
ARG_OF_PERICENTER = 197.2900
MEAN_ANOMALY   = 162.7917

EPHEMERIS_TYPE = 0
CLASSIFICATION_TYPE = U
NORAD_CAT_ID   = 23087
ELEMENT_SET_NO = 999
REV_AT_EPOCH   = 63078
BSTAR          = .34477726E-4
MEAN_MOTION_DOT = .19E-6
MEAN_MOTION_DDOT = 0

CCSDS_OMM_VERS = 2.0
CREATION_DATE  = 
ORIGINATOR     = 

OBJECT_NAME    = SL-16 R/B
OBJECT_ID      = 1994-023B
CENTER_NAME    = EARTH
REF_FRAME      = TEME
TIME_SYSTEM    = UTC
MEAN_ELEMENT_THEORY = SGP/SGP4

EPOCH          = 2025-11-30T14:30:20.817504
MEAN_MOTION    = 14.14995452
ECCENTRICITY   = .00010743
INCLINATION    = 70.9998
RA_OF_ASC_NODE = 278.9697
ARG_OF_PERICENTER = 88.3087
MEAN_ANOMALY   = 271.8158

EPHEMERIS_TYPE = 0
CLASSIFICATION_TYPE = U
NORAD_CAT_ID   = 23088
ELEMENT_SET_NO = 999
REV_AT_EPOCH   = 63207
BSTAR          = .20182162E-3
MEAN_MOTION_DOT = .343E-5
MEAN_MOTION_DDOT = 0

CCSDS_OMM_VERS = 2.0
CREATION_DATE  = 
ORIGINATOR     = 

OBJECT_NAME    = SL-16 R/B
OBJECT_ID      = 1994-074B
CENTER_NAME    = EARTH
REF_FRAME      = TEME
TIME_SYSTEM    = UTC
MEAN_ELEMENT_THEORY = SGP/SGP4

EPOCH          = 2025-11-30T15:27:46.000224
MEAN_MOTION    = 14.79267047
ECCENTRICITY   = .00066762
INCLINATION    = 97.7216
RA_OF_ASC_NODE = 4.4290
ARG_OF_PERICENTER = 171.4534
MEAN_ANOMALY   = 301.2121

EPHEMERIS_TYPE = 0
CLASSIFICATION_TYPE = U
NORAD_CAT_ID   = 23343
ELEMENT_SET_NO = 999
REV_AT_EPOCH   = 67260
BSTAR          = .78551516E-4
MEAN_MOTION_DOT = .535E-5
MEAN_MOTION_DDOT = 0

CCSDS_OMM_VERS = 2.0
CREATION_DATE  = 
ORIGINATOR     = 

OBJECT_NAME    = SL-16 R/B
OBJECT_ID      = 1994-077B
CENTER_NAME    = EARTH
REF_FRAME      = TEME
TIME_SYSTEM    = UTC
MEAN_ELEMENT_THEORY = SGP/SGP4

EPOCH          = 2025-11-30T14:59:27.192192
MEAN_MOTION    = 14.15545787
ECCENTRICITY   = .000456
INCLINATION    = 70.9809
RA_OF_ASC_NODE = 200.9001
ARG_OF_PERICENTER = 293.7386
MEAN_ANOMALY   = 66.3258

EPHEMERIS_TYPE = 0
CLASSIFICATION_TYPE = U
NORAD_CAT_ID   = 23405
ELEMENT_SET_NO = 999
REV_AT_EPOCH   = 60221
BSTAR          = -.70308434E-4
MEAN_MOTION_DOT = -.185E-5
MEAN_MOTION_DDOT = 0

CCSDS_OMM_VERS = 2.0
CREATION_DATE  = 
ORIGINATOR     = 

OBJECT_NAME    = ARIANE 40+ R/B
OBJECT_ID      = 1995-021B
CENTER_NAME    = EARTH
REF_FRAME      = TEME
TIME_SYSTEM    = UTC
MEAN_ELEMENT_THEORY = SGP/SGP4

EPOCH          = 2025-11-30T15:42:50.637600
MEAN_MOTION    = 14.39680234
ECCENTRICITY   = .0007823
INCLINATION    = 98.4667
RA_OF_ASC_NODE = 42.3887
ARG_OF_PERICENTER = 81.5799
MEAN_ANOMALY   = 37.1019

EPHEMERIS_TYPE = 0
CLASSIFICATION_TYPE = U
NORAD_CAT_ID   = 23561
ELEMENT_SET_NO = 999
REV_AT_EPOCH   = 60499
BSTAR          = .12268252E-3
MEAN_MOTION_DOT = .34E-5
MEAN_MOTION_DDOT = 0

CCSDS_OMM_VERS = 2.0
CREATION_DATE  = 
ORIGINATOR     = 

OBJECT_NAME    = SL-16 R/B
OBJECT_ID      = 1995-058B
CENTER_NAME    = EARTH
REF_FRAME      = TEME
TIME_SYSTEM    = UTC
MEAN_ELEMENT_THEORY = SGP/SGP4

EPOCH          = 2025-11-30T13:20:43.231488
MEAN_MOTION    = 14.15476247
ECCENTRICITY   = .00148736
INCLINATION    = 71.0224
RA_OF_ASC_NODE = 28.3846
ARG_OF_PERICENTER = 270.5118
MEAN_ANOMALY   = 89.4301

EPHEMERIS_TYPE = 0
CLASSIFICATION_TYPE = U
NORAD_CAT_ID   = 23705
ELEMENT_SET_NO = 999
REV_AT_EPOCH   = 55382
BSTAR          = .14494072E-3
MEAN_MOTION_DOT = .236E-5
MEAN_MOTION_DDOT = 0

CCSDS_OMM_VERS = 2.0
CREATION_DATE  = 
ORIGINATOR     = 

OBJECT_NAME    = SL-16 R/B
OBJECT_ID      = 1996-051B
CENTER_NAME    = EARTH
REF_FRAME      = TEME
TIME_SYSTEM    = UTC
MEAN_ELEMENT_THEORY = SGP/SGP4

EPOCH          = 2025-11-30T14:10:18.524352
MEAN_MOTION    = 14.12394503
ECCENTRICITY   = .00190485
INCLINATION    = 70.7605
RA_OF_ASC_NODE = 25.0005
ARG_OF_PERICENTER = 276.3871
MEAN_ANOMALY   = 83.5080

EPHEMERIS_TYPE = 0
CLASSIFICATION_TYPE = U
NORAD_CAT_ID   = 24298
ELEMENT_SET_NO = 999
REV_AT_EPOCH   = 50765
BSTAR          = .13580382E-4
MEAN_MOTION_DOT = -.24E-6
MEAN_MOTION_DDOT = 0

